      2.10          N: GNSS NAV DATA                        RINEX VERSION / TYPE
fic2rin                                 12/04/2019 00:17:30 PGM / RUN BY / DATE
                                                            END OF HEADER
22 19 12  3  6  0  0.0-7.754378020763e-04-2.160049916711e-12 0.000000000000e+00
    2.800000000000e+01-6.593750000000e+01 5.167358098349e-09 1.869235968610e+00
   -3.572553396225e-06 6.878850399517e-03 7.295981049538e-06 5.153639984131e+03
    1.944000000000e+05 1.285225152969e-07 8.837685625423e-01-3.166496753693e-08
    9.289059767768e-01 2.185625000000e+02-1.259652139693e+00-8.263915653829e-09
   -4.821629411647e-11 1.000000000000e+00 2.082000000000e+03 0.000000000000e+00
    2.400000000000e+00 0.000000000000e+00-1.816079020500e-08 2.800000000000e+01
    1.872000000000e+05 4.000000000000e+00
16 19 12  3  6  0  0.0-9.917793795466e-05-3.865352482535e-12 0.000000000000e+00
    1.900000000000e+01 2.971875000000e+01 4.039811131492e-09-2.526223747313e+00
    1.292675733566e-06 1.102680480108e-02 8.378177881241e-06 5.153677749634e+03
    1.944000000000e+05 9.313225746155e-09-2.090608869497e+00-1.844018697739e-07
    9.807890276969e-01 2.299375000000e+02 5.794203599152e-01-7.669248026393e-09
   -8.250343659930e-11 1.000000000000e+00 2.082000000000e+03 0.000000000000e+00
    2.400000000000e+00 0.000000000000e+00-1.024454832077e-08 1.900000000000e+01
    1.872000000000e+05 4.000000000000e+00
11 19 12  3  6  0  0.0-4.304549656808e-04 1.114131009672e-11 0.000000000000e+00
    9.500000000000e+01-2.531250000000e+00 5.903103030793e-09-2.108078937721e-01
   -3.166496753693e-08 1.633675221819e-02 4.064291715622e-06 5.153748838425e+03
    1.944000000000e+05-1.732259988785e-07-5.403186004271e-01-1.098960638046e-07
    9.115026293203e-01 2.758125000000e+02 1.974053987547e+00-9.143595153154e-09
    1.242908915002e-10 1.000000000000e+00 2.082000000000e+03 0.000000000000e+00
    3.400000000000e+00 0.000000000000e+00-1.210719347000e-08 9.500000000000e+01
    1.872000000000e+05 4.000000000000e+00
23 19 12  3  6  0  0.0-1.518954522908e-04 2.273736754432e-12 0.000000000000e+00
    2.300000000000e+01 3.406250000000e+00 4.973421448680e-09 1.362665380003e+00
    2.067536115646e-07 1.325560966507e-02 9.043142199516e-06 5.153711833954e+03
    1.944000000000e+05-2.738088369370e-07 1.988719760309e+00 1.862645149231e-08
    9.430599812964e-01 2.013125000000e+02-2.217808333991e+00-8.304631635527e-09
    7.607459738377e-11 1.000000000000e+00 2.082000000000e+03 0.000000000000e+00
    2.400000000000e+00 0.000000000000e+00-2.048909664154e-08 2.300000000000e+01
    1.872000000000e+05 4.000000000000e+00
14 19 12  3  6  0  0.0-4.704017192125e-05 2.160049916711e-12 0.000000000000e+00
    2.800000000000e+01 3.250000000000e+00 4.389111395536e-09 2.493549204299e+00
    1.695007085800e-07 1.072378456593e-02 8.672475814819e-06 5.153592182159e+03
    1.944000000000e+05 1.266598701477e-07 2.090080716571e+00-1.415610313416e-07
    9.601787487618e-01 2.094375000000e+02-1.930950920359e+00-7.687820228571e-09
    2.317953694933e-10 1.000000000000e+00 2.082000000000e+03 0.000000000000e+00
    2.400000000000e+00 0.000000000000e+00-9.778887033463e-09 2.800000000000e+01
    1.872000000000e+05 4.000000000000e+00
28 19 12  3  6  0  0.0 7.524215616286e-04-1.705302565824e-12 0.000000000000e+00
    1.400000000000e+01 5.175000000000e+01 3.956236221690e-09-2.730068614773e+00
    2.635642886162e-06 1.907307445072e-02 7.729977369308e-06 5.153711200714e+03
    1.944000000000e+05 2.216547727585e-07-2.086764841583e+00 2.104789018631e-07
    9.797734041350e-01 2.353437500000e+02-1.433829705837e+00-7.446381600254e-09
   -7.536028191537e-11 1.000000000000e+00 2.082000000000e+03 0.000000000000e+00
    2.400000000000e+00 0.000000000000e+00-1.117587089539e-08 1.400000000000e+01
    1.872000000000e+05 4.000000000000e+00
31 19 12  3  6  0  0.0-7.255934178829e-06-2.614797267597e-12 0.000000000000e+00
    6.500000000000e+01 2.365625000000e+01 4.743411867858e-09-4.005528598115e-01
    1.333653926849e-06 9.593312977813e-03 6.349757313728e-06 5.153737092972e+03
    1.944000000000e+05 1.490116119385e-07 3.085320595347e+00-2.048909664154e-08
    9.590329986367e-01 2.514687500000e+02 7.573898038683e-02-8.225342618536e-09
   -3.214419607765e-11 1.000000000000e+00 2.082000000000e+03 0.000000000000e+00
    2.400000000000e+00 0.000000000000e+00-1.350417733192e-08 6.500000000000e+01
    1.872000000000e+05 4.000000000000e+00
27 19 12  3  6  0  0.0-1.387037336826e-04-1.170974428533e-11 0.000000000000e+00
    4.800000000000e+01 4.434375000000e+01 4.125171829965e-09 2.813227609285e+00
    2.326443791389e-06 7.424560491927e-03 6.500631570816e-06 5.153657793045e+03
    1.944000000000e+05-8.568167686462e-08-1.132639704887e+00-1.024454832077e-07
    9.784070050018e-01 2.637812500000e+02 4.994203848522e-01-7.806039438590e-09
    1.228622605635e-10 1.000000000000e+00 2.082000000000e+03 0.000000000000e+00
    2.400000000000e+00 0.000000000000e+00 1.862645149231e-09 4.800000000000e+01
    1.872000000000e+05 4.000000000000e+00
24 19 12  3  6  0  0.0-5.714595317841e-06-5.684341886081e-13 0.000000000000e+00
    6.800000000000e+01 2.856250000000e+01 5.243789853467e-09 8.700884279098e-01
    1.467764377594e-06 9.193626814522e-03 6.597489118576e-06 5.153664707184e+03
    1.944000000000e+05-8.568167686462e-08 3.001372074188e+00 1.061707735062e-07
    9.377330591573e-01 2.404375000000e+02 6.297130579622e-01-8.440708732256e-09
   -1.546492989069e-10 1.000000000000e+00 2.082000000000e+03 0.000000000000e+00
    3.400000000000e+00 0.000000000000e+00 2.793967723846e-09 6.800000000000e+01
    1.872000000000e+05 4.000000000000e+00
25 19 12  3  6  0  0.0-1.741759479046e-05 0.000000000000e+00 0.000000000000e+00
    6.600000000000e+01 3.065625000000e+01 4.414112436929e-09-1.052284881489e+00
    1.717358827591e-06 8.660640334710e-03 8.121132850647e-06 5.153625295639e+03
    1.944000000000e+05 1.583248376846e-07-2.176221124962e+00 1.192092895508e-07
    9.679127606973e-01 2.277812500000e+02 8.850117956765e-01-7.993904406777e-09
   -2.314382117591e-10 1.000000000000e+00 2.082000000000e+03 0.000000000000e+00
    2.400000000000e+00 0.000000000000e+00 5.587935447693e-09 6.600000000000e+01
    1.872000000000e+05 4.000000000000e+00
15 19 12  3  6  0  0.0-2.683713100851e-04 2.728484105319e-12 0.000000000000e+00
    7.800000000000e+01-4.437500000000e+00 5.261290582443e-09 1.914854378605e+00
   -3.241002559662e-07 1.205418154132e-02 9.339302778244e-06 5.153603767395e+03
    1.944000000000e+05-2.160668373108e-07 1.910713131088e+00-1.043081283569e-07
    9.277299969125e-01 1.845937500000e+02 8.457216767082e-01-8.318203629427e-09
    2.150089559860e-10 1.000000000000e+00 2.082000000000e+03 0.000000000000e+00
    2.400000000000e+00 0.000000000000e+00-1.117587089539e-08 7.800000000000e+01
    1.872000000000e+05 4.000000000000e+00
13 19 12  3  6  0  0.0-2.907030284405e-05 2.387423592154e-12 0.000000000000e+00
    6.900000000000e+01 1.271875000000e+01 4.377325190307e-09 1.927485020196e+00
    6.575137376785e-07 4.106310778297e-03 8.776783943176e-06 5.153663814545e+03
    1.944000000000e+05 7.450580596924e-09 2.135808204665e+00-5.215406417847e-08
    9.676220920412e-01 2.135937500000e+02 1.186340127234e+00-7.879971089568e-09
    2.510818871398e-10 1.000000000000e+00 2.082000000000e+03 0.000000000000e+00
    2.400000000000e+00 0.000000000000e+00-1.117587089539e-08 6.900000000000e+01
    1.872000000000e+05 4.000000000000e+00
21 19 12  3  6  0  0.0-7.671909406781e-05 5.798028723802e-12 0.000000000000e+00
    6.500000000000e+01-2.103125000000e+01 5.003779856087e-09-1.232301118997e+00
   -8.065253496170e-07 2.462723245844e-02 4.647299647331e-06 5.153606367111e+03
    1.944000000000e+05-5.289912223816e-07-1.467189141745e-01 3.408640623093e-07
    9.512198428331e-01 2.885000000000e+02-1.393387598861e+00-8.718934607195e-09
    1.964367538078e-11 1.000000000000e+00 2.082000000000e+03 0.000000000000e+00
    2.400000000000e+00 0.000000000000e+00-1.024454832077e-08 6.500000000000e+01
    1.872000000000e+05 4.000000000000e+00
19 19 12  3  6  0  0.0-2.315100282431e-04 5.229594535194e-12 0.000000000000e+00
    4.800000000000e+01 4.428125000000e+01 4.125171829965e-09-8.320160478023e-01
    2.432614564896e-06 9.192206198350e-03 5.960464477539e-06 5.153662534714e+03
    1.944000000000e+05-1.005828380585e-07-1.029385207443e+00 8.754432201385e-08
    9.821747768475e-01 2.792812500000e+02 1.534558707821e+00-8.100694569301e-09
    1.392915163365e-10 1.000000000000e+00 2.082000000000e+03 0.000000000000e+00
    2.400000000000e+00 0.000000000000e+00-1.536682248116e-08 4.800000000000e+01
    1.872000000000e+05 4.000000000000e+00
12 19 12  3  6  0  0.0 1.772171817720e-04-3.979039320257e-12 0.000000000000e+00
    6.700000000000e+01 3.903125000000e+01 4.147315609485e-09-6.570007855084e-01
    2.149492502213e-06 7.647406426258e-03 8.411705493927e-06 5.153787319183e+03
    1.944000000000e+05-1.303851604462e-08-2.109506050880e+00 8.940696716309e-08
    9.805078958038e-01 2.328125000000e+02 1.092697374614e+00-7.914615389785e-09
   -1.932223342001e-10 1.000000000000e+00 2.082000000000e+03 0.000000000000e+00
    2.400000000000e+00 0.000000000000e+00-1.257285475731e-08 6.700000000000e+01
    1.872000000000e+05 4.000000000000e+00
29 19 12  3  6  0  0.0 2.841278910637e-05-9.890754881781e-12 0.000000000000e+00
    5.500000000000e+01 4.703125000000e+01 4.060883437809e-09 2.978653016397e+00
    2.527609467506e-06 1.048653153703e-03 6.482005119324e-06 5.153662172318e+03
    1.944000000000e+05 6.705522537231e-08-1.063851560316e+00 2.235174179077e-08
    9.857053116570e-01 2.686250000000e+02 2.043228930583e+00-7.934259065166e-09
    1.546492989069e-10 1.000000000000e+00 2.082000000000e+03 0.000000000000e+00
    2.400000000000e+00 0.000000000000e+00-9.778887033463e-09 5.500000000000e+01
    1.872000000000e+05 4.000000000000e+00
